#dP2024 10 29 18  0  0.00000000      96 __u+U IGS20 EXT  IAC
## 2338 237600.00000000   900.00000000 60612 0.7500000000000
+   53   G02G03G04G05G06G07G08G09G10G11G12G13G14G15G16G17G18
+        G19G20G21G22G23G24G25G26G27G28G29G30G31G32R01R02R03
+        R04R05R07R08R09R11R12R14R15R16R17R18R19R20R21R22R24
+        R25R26  0  0  0  0  0  0  0  0  0  0  0  0  0  0  0
+          0  0  0  0  0  0  0  0  0  0  0  0  0  0  0  0  0
++         6  6  6  7  6  6  6  6  7  7  6  6  7  7  6  6  6
++         5  6  6  7  6  7  7  6  6  6  7  7  8  7  8  9  7
++         6  8  7  7  8  7 11  7  9  9  6  8  8 10  7  6  8
++         8  8  0  0  0  0  0  0  0  0  0  0  0  0  0  0  0
++         0  0  0  0  0  0  0  0  0  0  0  0  0  0  0  0  0
%c M  cc GPS ccc cccc cccc cccc cccc ccccc ccccc ccccc ccccc
%c cc cc ccc ccc cccc cccc cccc cccc ccccc ccccc ccccc ccccc
%f  0.0000000  0.000000000  0.00000000000  0.000000000000000
%f  0.0000000  0.000000000  0.00000000000  0.000000000000000
%i    0    0    0    0      0      0      0      0         0
%i    0    0    0    0      0      0      0      0         0
/* IAC                                ULTRA-RAPID PREDICTION
/* S/V CLOCKS ARE ALIGNED TO GNSS TIME                      
/* G:C1WC2W R:C1PC2P E:C1XC5X C:C2IC6I J:C1CC2S             
/* PCV:IGS20_2317 OL/AL:FES2004  NONE     YN ORB:CoN CLK:CoN
*  2024 10 30  4 30  0.00000000
PG02  17924.127853   5278.155220  19480.538818   -326.022618
PG03  19419.738943  -7761.036190  16141.645572    585.373858
PG04  25965.884298     72.983836  -5939.086053    470.611809
PG05 -12743.730815  -7956.874104 -22083.458836   -191.397892
PG06  -4198.682616 -24902.058216   8115.809475    -75.763523
PG07  10757.600208 -12105.555741 -20436.339644    -23.589557
PG08  25284.019523   6600.515588  -6045.576213    399.233422
PG09  20966.786334  -7991.169303 -14354.437633    420.850448
PG10  -8149.206024  22660.244058  11030.020652   -176.702208
PG11 -12668.596769 -22586.723314  -6008.644622   -747.400191
PG12 -19049.825480   2705.178806  18005.479155   -548.618314
PG13 -19656.384711 -13801.514572 -11830.754183    683.785464
PG14  11454.589371 -22738.099259   7181.472008    528.670246
PG15 -25757.923318  -3760.675237  -6193.592703    221.686486
PG16   8769.404948  12953.331257 -21763.460140   -141.693996
PG17   6084.451400 -14299.150386  21973.710904    577.725318
PG18  -9522.796010  13779.789047 -20528.694850   -659.431789
PG19  -5440.310020 -15878.361371  20538.824541    556.644101
PG20  -5414.136543 -18213.830533 -18540.531288    369.200866
PG21  18768.027120  11919.471832  15685.560892     98.646301
PG22   5878.784486 -21728.988955  14736.144291    -75.328188
PG23 -16641.312853  20393.476846  -2410.388053    352.428577
PG24 -18552.452344  -7622.253996  17149.330277   -482.841962
PG25 -19278.993807  15452.336990   9037.358331    499.312333
PG26    558.749995  21221.291568 -15893.916681     42.957676
PG27  18107.126975  12847.317291 -15186.717625    -34.730446
PG28   3485.901759  24369.948720   9953.042860   -462.612595
PG29 -22417.108343   4897.467309 -13526.661581   -567.637286
PG30   3142.981866 -21344.989891 -15167.636931   -292.340148
PG31  10620.121372  24085.817964  -1509.414604   -222.616046
PG32  -2347.917616  15101.506074  21937.835348   -580.552741
PR01  -2897.166679 -10526.874574 -23057.726659    102.724169
PR02 -18925.921063  -3620.044340 -16633.201645    -25.421449
PR03 -24831.893921   5639.785494   -593.165537    110.379619
PR04 -17147.226795  11118.893678  15272.251961    261.605583
PR05   -290.708207  10951.013747  23038.506385    139.919701
PR07  24873.885834  -5790.575094    230.322719     93.960861
PR08  16920.821459 -11364.853635 -15310.469424     -6.351531
PR09   8257.210162  10767.799175 -21598.355290    217.601777
PR11  10757.095707 -21003.562533  -9653.868400      8.063308
PR12   1889.709247 -23446.882733   9905.602001     46.638677
PR14 -12649.403920   7675.445029  20794.336844     27.140169
PR15 -10406.291497  21875.686846   8018.480945     74.575401
PR16  -2003.236391  23514.382785  -9718.901399     30.357256
PR17 -15852.850422  -3767.184367 -19628.420165    135.283223
PR18  -4813.056194  10135.402604 -22889.435320    169.363605
PR19   6612.584175  18749.674423 -15966.344258   -296.667150
PR20  17749.691991  17806.726931   4419.176925   -121.194939
PR21  16131.115062   4674.568760  19191.891103   -147.015766
PR22   4430.419316 -11195.344646  22518.117854      5.822954
PR24 -18726.949788 -16650.502866  -4813.847093    -78.040177
PR25  15683.203573   3750.760878  19765.519190    -85.864184
PR26  18110.553570 -11164.682951 -14044.713354   -503.917450
*  2024 10 30  4 45  0.00000000
PG02  18843.468452   7104.838291  17965.321954   -326.015089
PG03  18365.778164  -6080.098853  17982.145716    585.383838
PG04  26451.408889    363.321246  -3145.059877    470.617776
PG05 -11398.891829 -10037.859461 -21963.855467   -191.399057
PG06  -3620.634912 -23986.423030  10756.404488    -75.789097
PG07  11872.543295  -9872.062279 -21037.541052    -23.587000
PG08  24452.092766   6787.186672  -8687.780034    399.243187
PG09  22447.304798  -7689.847765 -12092.422315    420.865519
PG10  -8930.604210  23441.680689   8400.894417   -176.714734
PG11 -12653.016734 -23164.765102  -3210.410222   -747.402293
PG12 -17762.366106    920.170942  19427.048692   -548.620682
PG13 -18216.848856 -13618.878870 -14143.584793    683.786909
PG14  12097.069042 -23090.639295   4450.063169    528.677725
PG15 -24981.146831  -4094.928087  -8815.486904    221.690475
PG16   7171.705603  14732.701962 -21160.034331   -141.685043
PG17   8443.231293 -13900.468140  21449.490218    577.712961
PG18 -10549.317408  11604.780432 -21373.381054   -659.432617
PG19  -3062.765569 -15451.980267  21298.066889    556.648167
PG20  -4415.465263 -19997.356116 -16915.378049    369.200545
PG21  19454.923174  13343.175513  13596.429204     98.645503
PG22   6976.159984 -22749.906118  12512.373268    -75.331045
PG23 -16567.826740  19906.396447  -5276.255645    352.435819
PG24 -19354.415907  -9390.982774  15376.452399   -482.840456
PG25 -18814.613927  14277.013345  11535.961274    499.312123
PG26   -529.081044  22552.271836 -13881.093096     42.948759
PG27  16318.180279  12839.682655 -17098.295114    -34.730519
PG28   2720.771861  23319.488847  12403.291335   -462.623743
PG29 -23767.475555   4481.103822 -11161.841551   -567.634801
PG30   4140.601907 -19732.417456 -17007.814836   -292.333334
PG31  10335.030628  24190.518768   1355.791279   -222.615511
PG32  -4786.547462  14868.450029  21678.549967   -580.548394
PR01   -192.547505 -11363.438737 -22840.366025    102.725352
PR02 -16778.211922  -4072.833888 -18705.998802    -25.421522
PR03 -24522.700517   5719.974007  -3803.105421    110.380221
PR04 -18778.736644  11694.842891  12701.239552    261.607265
PR05  -3002.908896  11684.605982  22474.736237    139.920272
PR07  24615.861535  -5894.818635   3436.475197     93.961605
PR08  18565.853776 -11948.733827 -12759.448142     -6.351401
PR09   7726.948859  13301.765182 -20354.693165    217.603764
PR11  10301.126849 -19708.287359 -12470.366268      8.062494
PR12   2024.075493 -24480.620522   6923.687000     46.639153
PR14 -11976.648350   5129.569078  21943.638689     27.140249
PR15 -10000.338296  20775.546870  10935.772809     74.575257
PR16  -2109.229983  24534.152677  -6717.223798     30.357638
PR17 -17562.189429  -5322.451696 -17726.596963    135.286360
PR18  -6786.609577   8075.482123 -23203.004359    169.365376
PR19   5297.421819  17091.591946 -18166.297002   -296.668245
PR20  18143.631961  17914.884366   1200.415808   -121.195514
PR21  17790.140835   6194.937034  17187.165559   -147.018617
PR22   6321.015192  -9129.148266  22995.272278      5.812630
PR24 -19116.300257 -16827.739423  -1633.974069    -78.041502
PR25  17322.342191   5400.847199  17926.453994    -85.859517
PR26  19587.107764 -11718.855459 -11356.313273   -503.882644
EOF
